#dP2018  1  2  0  0  0.00000000     288   u+U IGS14 FIT  GFZ                    
## 1982 172800.00000000   300.00000000 58120 0.0000000000000                    
+   87   C01C02C03C04C05C06C07C08C09C10C11C12C13C14E01E02E03                    
+        E04E05E07E08E09E11E12E14E18E19E24E26E30G01G02G03G05                    
+        G06G07G08G09G10G11G12G13G14G15G16G17G18G19G20G21G22                    
+        G23G24G25G26G27G28G29G30G31G32J01J02J03R01R02R03R04                    
+        R05R06R07R08R09R10R11R13R14R15R16R17R18R19R20R21R22                    
+        R23R24 00 00 00 00 00 00 00 00 00 00 00 00 00 00 00                    
++        10 10 10 10 10  9 10  9 10  9  6  8 10 10  6  6  8                    
++         7  6  6  8  8  6  7  6  5  9  9  5  6  6  7  7  6                    
++         6  9  6  6  5  5  6  7  6  6  7  7  8  8  5  6  6                    
++         7  5  6  7  7  7  5  6  6  6 10 10 10  9  5  8  5                    
++        10  8  6  9  7  6  7 10  7  7 10  6  5 10  9  8  6                    
++         9  0  0  0  0  0  0  0  0  0  0  0  0  0  0  0  0                    
%c M  cc GPS ccc cccc cccc cccc cccc ccccc ccccc ccccc ccccc                    
%c cc cc ccc ccc cccc cccc cccc cccc ccccc ccccc ccccc ccccc                    
%f  1.2500000  1.025000000  0.00000000000  0.000000000000000                    
%f  0.0000000  0.000000000  0.00000000000  0.000000000000000                    
%i    0    0    0    0      0      0      0      0         0                    
%i    0    0    0    0      0      0      0      0         0                    
/* PCV:IGS14_1977 OL/AL:FES2004  NONE     YN CLK:CoN ORB:CoN                    
/*     GeoForschungsZentrum Potsdam                                             
/*                                                                              
/*                                                                              
*  2018  1  2 22  0  0.00000000                                                 
PC01 -32279.915231  27101.028614   -364.693147    190.435428                    
PC02   4472.320929  41922.939830   1092.118083   -126.507400                    
PC03 -14739.788804  39536.722925    589.710471   -356.865419                    
PC04 -39580.427868  14451.005316     77.929359   -207.161018                    
PC05  21938.674439  36008.712143   1414.317825   -110.465864                    
PC06 -20736.622100  36910.048332    206.666446   -667.897905                    
PC07  -8659.817785  28030.659114 -30015.219202   -260.616684                    
PC08 -21120.746885  19684.470457  30725.654448     90.045754                    
PC09 -11206.284391  38097.488745 -14472.547474   -542.114072                    
PC10   5090.614730  35924.163638 -21067.147606     83.766015                    
PC11 -18808.628003  17131.994749  11430.460271   -337.858583                    
PC12 -25940.899369   6992.487940  -7291.469591    368.664839                    
PC13  -4727.410714  23659.558340  34574.118088   -122.602721                    
PC14 -10864.016179  22163.219110  13121.679255    119.356411                    
PE01 -14023.216686 -25465.862591   5574.036190   -244.058389                    
PE02  14048.995387  25463.349692  -5541.242950      0.609070                    
PE03   3528.426985  23247.478109 -17977.991835     17.056473                    
PE04 -16278.977424  -5616.888050  24072.402926     51.683739                    
PE05 -11332.751493  27314.031365  -1329.017206    349.302738                    
PE07  19531.913777 -15381.455530 -16068.605799    108.758042                    
PE08  16190.641202   5433.743141 -24179.085247   6668.869760                    
PE09 -19293.203142  15538.899451  16193.483877   6914.501630                    
PE11 -27411.712604   8186.538954   7631.078794   1854.574096                    
PE12 -27055.472795  -4571.757305 -11109.963798   3194.789032                    
PE14  -8767.054579  19985.094752  13264.612777   6654.336826                    
PE18  -3525.437010 -20902.070472 -23104.085844   6533.268730                    
PE19  -2039.950529 -24313.557890  16749.994718     17.947325                    
PE24 -16513.898656   4099.405241 -24223.123207   6937.353329                    
PE26  11917.616842 -16133.851935 -21764.112668   6430.490380                    
PE30  21641.063071  15170.931849  13337.650787   6192.249470                    
PG01 -21261.489452 -13960.111094  -8274.408551    -21.191729                    
PG02    161.562520  16236.250182  21597.235041    238.749944                    
PG03 -13105.623125 -18435.259707  13938.337341    -16.665631                    
PG05   1933.154735  26013.273865   4269.218691    -18.020096                    
PG06 -12658.614592  10600.828812  20834.540642    414.378101                    
PG07 -25461.221894  -5037.636809  -6447.766836    257.119875                    
PG08  -4740.363707 -15153.694321 -21214.310789    -86.314191                    
PG09 -21256.156893   3726.681549  15453.096492    489.465717                    
PG10  12046.181634 -12441.480051 -20071.171931    139.948688                    
PG11 -18667.958573 -11225.394882 -15674.921140   -732.793667                    
PG12  10357.200370  21332.519695  11995.066207    357.402096                    
PG13  -4411.586297  18338.536974 -18823.473539    -95.139140                    
PG14  17289.367594 -18720.927765   7451.019615    -91.716051                    
PG15   7902.625589  14343.659935 -21067.586473   -357.402510                    
PG16    -91.635669 -26075.220199   3537.459186     34.641617                    
PG17 -21594.038805  15239.241504  -1294.843988   -133.732562                    
PG18  15928.495321    -70.916752 -20674.079544    633.590731                    
PG19 -19061.863774  17674.346591   5690.477553   -466.139510                    
PG20  14268.817428  19518.560001 -11193.061906    497.264257                    
PG21  25196.544981   2368.270899  -7343.269280   -445.970865                    
PG22 -11116.956047 -22984.058179   7515.738538   -243.621519                    
PG23 -15149.047187  -7058.454030  20980.304249   -219.067454                    
PG24  19504.006202  14649.034648 -10944.978877 999999.999999                    
PG25  15125.996684   9168.796700  19728.057622   -515.979308                    
PG26   5650.623090 -21953.858004  13745.176735   -301.864388                    
PG27   7649.852186 -20120.234115 -15457.917264    360.253454                    
PG28 -13120.243514   8348.522021 -20905.360496    676.411795                    
PG29  19084.925115   1158.116013  18420.879928    516.615548                    
PG30 -22077.584714   2069.511980 -14720.187296    115.807112                    
PG31  12349.926412 -10746.430296  21045.319812    151.286479                    
PG32  20635.441635 -16634.186788   -951.569157   -532.065494                    
PJ01 -26769.170207  25429.451282  25422.475654   -175.451966                    
PJ02 -23171.138682  16927.796211 -26604.028526      5.268629                    
PJ03 -25637.978295  33431.459167   2342.403548      0.850423                    
PR01  12159.627201  -4651.294484 -21943.815369     20.161849                    
PR02  10192.860593 -21596.883660  -8868.526672    288.227284                    
PR03   2077.566669 -23856.144346   8762.828308    120.320463                    
PR04  -7421.907602 -11763.760090  21386.163536    244.509068                    
PR05 -12320.677222   6419.557623  21375.835671   -223.115556                    
PR06  -9656.541422  22212.453142   8029.532282    124.416349                    
PR07  -1949.126894  23785.534769  -9027.300887    -26.432399                    
PR08   7083.217817  12410.895521 -21086.465713    -27.005094                    
PR09  -5880.841475   9698.534784 -22828.954246     48.067090                    
PR10   9404.961271  18975.364819 -14178.026633     15.088758                    
PR11  18719.420688  16997.097809   3231.918153    -18.436101                    
PR13   4676.450127 -10350.547949  22824.874236     -6.113352                    
PR14  -9144.368865 -19019.512452  14348.956904     23.543637                    
PR15 -17686.591825 -18302.184467    276.953544     -4.721143                    
PR16 -17307.265674  -5079.240175 -18001.202413     82.509033                    
PR17   1810.092134 -11359.134515 -22757.437315     97.947200                    
PR18 -15687.808183  -5132.548726 -19451.676110    179.631453                    
PR19 -24753.693656   3617.030495  -4972.317259    -39.768748                    
PR20 -18877.615351  10751.030515  13419.298345   -321.927701                    
PR21  -1523.131333  11238.026844  22851.036616     17.252433                    
PR22  16956.252885   4344.942268  18506.281256     -6.988435                    
PR23  24828.233952  -5593.394389   1715.111685    127.989933                    
PR24  18213.322561 -11222.894925 -13902.345785   -160.578215                    
EOF                                     
